HIMAWARI-8              
1 40267U 14060A   22173.48419532 -.00000277  00000+0  00000+0 0  9996
2 40267   0.0222  97.6317 0000699  11.9823 115.9914  1.00272165 28260
FENGYUN 2G              
1 40367U 14090A   22173.04550542 -.00000303  00000+0  00000+0 0  9999
2 40367   1.9484  89.4417 0001675   8.3733 288.2962  1.00261731 27438
METEOSAT-11 (MSG-4)     
1 40732U 15034A   22173.17965907 -.00000005  00000+0  00000+0 0  9992
2 40732   0.2975  56.7226 0001615  62.1043 216.2338  1.00278207 25423
ELEKTRO-L 2             
1 41105U 15074A   22173.19430913 -.00000119  00000+0  00000+0 0  9993
2 41105   2.9993  88.0690 0002100  47.4991 190.2486  1.00271209 23910
HIMAWARI-9              
1 41836U 16064A   22172.69497885 -.00000279  00000+0  00000+0 0  9996
2 41836   0.0188 297.7901 0000627 142.2152 220.7920  1.00269400 20587
GOES 16                 
1 41866U 16071A   22173.51993649 -.00000250  00000+0  00000+0 0  9997
2 41866   0.0577 242.9472 0000648 251.7101 247.9888  1.00272059 20511
FENGYUN 4A              
1 41882U 16077A   22172.54425418 -.00000334  00000+0  00000+0 0  9990
2 41882   0.0300 324.3443 0003816 161.5272  84.3122  1.00274262 20379
CYGFM05                 
1 41884U 16078A   22173.18234060  .00002505  00000+0  12752-3 0  9997
2 41884  34.9547 172.3810 0014595 136.1724 224.0148 15.16355395305607
CYGFM04                 
1 41885U 16078B   22173.29852450  .00002460  00000+0  12341-3 0  9993
2 41885  34.9479 160.8628 0013299 155.1572 204.9782 15.16885097305724
CYGFM02                 
1 41886U 16078C   22172.69683464  .00002558  00000+0  12813-3 0  9996
2 41886  34.9569 166.8229 0013805 143.1745 216.9918 15.16920323305557
CYGFM01                 
1 41887U 16078D   22173.11905188  .00002484  00000+0  12715-3 0  9994
2 41887  34.9513 175.1747 0015033 134.8731 225.3204 15.16163462305568
CYGFM08                 
1 41888U 16078E   22173.16787690  .00002589  00000+0  13076-3 0  9993
2 41888  34.9484 167.4981 0014372 147.6847 212.4747 15.16612021305610
CYGFM06                 
1 41889U 16078F   22173.33524410  .00002580  00000+0  12922-3 0  9992
2 41889  34.9564 161.5234 0012817 149.3782 210.7680 15.16937767305721
CYGFM07                 
1 41890U 16078G   22172.99073777  .00002241  00000+0  11266-3 0  9994
2 41890  34.9502 162.5086 0012662 150.9256 209.2163 15.16868773305676
CYGFM03                 
1 41891U 16078H   22172.66030992  .00002231  00000+0  11222-3 0  9992
2 41891  34.9533 165.0417 0012122 145.8411 214.3083 15.16860571305467
FENGYUN 3D              
1 43010U 17072A   22173.42836970  .00000057  00000+0  48576-4 0  9994
2 43010  98.8157 118.0024 0000777 224.3971 135.7137 14.19209686238470
NOAA 20                 
1 43013U 17073A   22173.58030551  .00000043  00000+0  40866-4 0  9995
2 43013  98.7167 112.0542 0001566  76.5632 283.5718 14.19558368237953
GOES 17                 
1 43226U 18022A   22173.45049289  .00000096  00000+0  00000+0 0  9999
2 43226   0.0890 256.4192 0000284 187.4325 211.7341  1.00271469 15835
FENGYUN 2H              
1 43491U 18050A   22173.11321951 -.00000132  00000+0  00000+0 0  9998
2 43491   1.1616  97.0598 0004149  33.5150 259.7874  1.00273390 14913
METOP-C                 
1 43689U 18087A   22173.57879153  .00000062  00000+0  48095-4 0  9991
2 43689  98.6835 233.4737 0003344  46.1867 313.9586 14.21491116188031
GEO-KOMPSAT-2A          
1 43823U 18100A   22173.48175323 -.00000345  00000+0  00000+0 0  9999
2 43823   0.0446 158.7259 0002245 293.5421 120.0438  1.00270141 13066
METEOR-M2 2             
1 44387U 19038A   22173.49308914  .00000010  00000+0  23657-4 0  9997
2 44387  98.7229 134.2316 0000160 279.2065  80.9095 14.23712508154120
FENGYUN 3E              
1 49008U 21062A   22173.58699701 -.00000019  00000+0  11430-4 0  9995
2 49008  98.7099 175.4644 0001830  13.2934 346.8287 14.19733000 50045
GOES 18                 
1 51850U 22021A   22173.45049289  .00000094  00000+0  00000+0 0  9993
2 51850   0.0626 115.7692 0002735 105.4644  74.7349  1.00273124  1204
LEMUR-2-TENNYSONLILY    
1 52732U 22057A   22172.82557430  .00007149  00000+0  42291-3 0  9994
2 52732  97.5209 287.4267 0010226 165.0249 195.1286 15.11708612  4094
LEMUR-2-VANDENDRIES     
1 52733U 22057B   22173.55188687  .00007388  00000+0  43517-3 0  9997
2 52733  97.5106 288.1078 0008709 158.7902 201.3691 15.11865037  4205
2022-057C               
1 52734U 22057C   22172.82072319  .00008455  00000+0  49470-3 0  9991
2 52734  97.5178 287.4218 0010226 160.7896 199.3722 15.12049127  4098
2022-057D               
1 52735U 22057D   22172.88792239  .00005361  00000+0  31654-3 0  9996
2 52735  97.5148 287.4745 0009917 156.1820 203.9871 15.11897750  4103
LEMUR-2-KAREN B         
1 52736U 22057E   22173.08525973  .00007820  00000+0  45860-3 0  9995
2 52736  97.5082 287.6484 0008801 153.6805 206.4875 15.12002883  4130
GHGSAT-C3               
1 52737U 22057F   22173.55962098  .00001676  00000+0  10191-3 0  9993
2 52737  97.5172 288.1414 0009982 148.5613 266.8205 15.11787427  4209
PLANETUM 1              
1 52738U 22057G   22172.81969087  .00004717  00000+0  27850-3 0  9996
2 52738  97.5121 287.4017 0009360 149.8098 210.3674 15.11961929  4098
CONNECTA T1.1           
1 52739U 22057H   22172.82002773  .00003433  00000+0  20403-3 0  9999
2 52739  97.5205 287.4315 0010468 152.7974 207.3807 15.11907907  4090
LEMUR-2-HANCOM-1        
1 52740U 22057J   22172.95063095  .00006337  00000+0  37129-3 0  9998
2 52740  97.5283 287.5938 0011919 157.0050 203.1716 15.12086556  4110
2022-057K               
1 52741U 22057K   22173.08313831  .00005786  00000+0  33960-3 0  9996
2 52741  97.5226 287.7021 0011384 154.2607 205.9192 15.12065480  4139
2022-057L               
1 52742U 22057L   22172.81749478  .00007754  00000+0  45271-3 0  9992
2 52742  97.5153 287.4167 0009652 149.8277 210.3511 15.12161254  4091
2022-057M               
1 52743U 22057M   22172.81746264  .00005021  00000+0  29514-3 0  9990
2 52743  97.5129 287.4076 0009758 147.7563 212.4266 15.12090360  4095
GHGSAT-C5               
1 52744U 22057N   22173.55597400  .00001614  00000+0  97543-4 0  9991
2 52744  97.5230 288.1714 0011204 146.1475 274.7866 15.12039972  4202
AMS                     
1 52745U 22057P   22173.07923534  .00002142  00000+0  12774-3 0  9999
2 52745  97.5145 287.6751 0010378 140.3459 219.8533 15.12179806  4136
GHGSAT-C4               
1 52746U 22057Q   22173.55264211  .00001741  00000+0  10456-3 0  9992
2 52746  97.5111 288.1287 0010535 138.4092 277.8748 15.12171071  4202
2022-057R               
1 52747U 22057R   22172.87926433  .00004017  00000+0  23542-3 0  9997
2 52747  97.5200 287.5044 0011210 145.0574 215.1394 15.12303200  4108
2022-057S               
1 52748U 22057S   22173.07741603  .00004207  00000+0  24625-3 0  9999
2 52748  97.5161 287.6844 0010756 139.5870 220.6162 15.12324053  4131
ICEYE-X18               
1 52749U 22057T   22173.54897253  .00007327  00000+0  42380-3 0  9999
2 52749  97.5159 288.1528 0010831 136.2641 280.1693 15.12506829  4209
2022-057U               
1 52750U 22057U   22173.12844525  .00014398  00000+0  80681-3 0  9991
2 52750  97.5226 287.8007 0013112 142.8162 217.3980 15.13433249  4140
2022-057V               
1 52751U 22057V   22172.87873354  .00002401  00000+0  14231-3 0  9995
2 52751  97.5137 287.4789 0010899 137.6206 222.5869 15.12290459  4108
2022-057W               
1 52752U 22057W   22172.87756619  .00004151  00000+0  24250-3 0  9996
2 52752  97.5182 287.4995 0011153 141.1885 219.0149 15.12399394  4105
UMBRA-03                
1 52753U 22057X   22173.13912010  .00013522  00000+0  77239-3 0  9993
2 52753  97.5149 287.7521 0011037 139.9708 220.2338 15.12782453  4147
HAWK-5C                 
1 52754U 22057Y   22172.87506680  .00002421  00000+0  14236-3 0  9990
2 52754  97.5270 287.5184 0011243 140.7848 219.4199 15.12571574  4101
ICEYE-X24               
1 52755U 22057Z   22173.54664529  .00007541  00000+0  43436-3 0  9995
2 52755  97.5179 288.1659 0011283 138.2494 278.7074 15.12646243  4204
HAWK-5B                 
1 52756U 22057AA  22173.00696930  .00003367  00000+0  19668-3 0  9990
2 52756  97.5112 287.6093 0011770 136.1517 224.0650 15.12528850  4120
HAWK-5A                 
1 52757U 22057AB  22172.87446595  .00002431  00000+0  14303-3 0  9997
2 52757  97.5190 287.5065 0012088 140.1347 220.0774 15.12533298  4107
ICEYE-X19               
1 52758U 22057AC  22173.54265137  .00007404  00000+0  42368-3 0  9991
2 52758  97.5184 288.1725 0012551 138.2549 279.8202 15.12873056  4206
ICEYE-X20               
1 52759U 22057AD  22173.54184233  .00006975  00000+0  39909-3 0  9998
2 52759  97.5177 288.1716 0012679 138.1882 278.9640 15.12896155  4200
2022-057AE              
1 52760U 22057AE  22173.00386872  .00001631  00000+0  96829-4 0  9993
2 52760  97.5174 287.6309 0012934 136.2334 223.9925 15.12673107  4123
ION SCV-006             
1 52761U 22057AF  22172.87044231  .00002227  00000+0  13059-3 0  9993
2 52761  97.5182 287.5076 0013356 137.6037 222.6229 15.12735843  4104
ICEYE-X17               
1 52762U 22057AG  22173.53981657  .00006378  00000+0  36431-3 0  9990
2 52762  97.5181 288.1738 0013045 138.1456 278.4914 15.12988689  4201
SHERPA-AC1              
1 52763U 22057AH  22173.13253404  .00002430  00000+0  14153-3 0  9991
2 52763  97.5185 287.7730 0013695 134.6496 225.5854 15.12889709  4141
2022-057AJ              
1 52764U 22057AJ  22173.06385803  .00004501  00000+0  25754-3 0  9993
2 52764  97.5158 287.7010 0013794 133.4143 226.8239 15.13082855  4137
2022-057AK              
1 52765U 22057AK  22173.12624528  .00005142  00000+0  29177-3 0  9996
2 52765  97.5220 287.7938 0014639 131.6048 228.6440 15.13304138  4146
FORESAIL 1              
1 52766U 22057AL  22173.12613430  .00004543  00000+0  25823-3 0  9995
2 52766  97.5222 287.7962 0015032 134.0424 226.2048 15.13297050  4141
